{
  "type": "FeatureCollection",
  "features": [
    {
      "type": "Feature",
      "properties": {
        "norad_id": 34340,
        "name": "COSMOS 2251 DEB",
        "group": "cosmos-2251-debris",
        "lat": 5.888511755967367,
        "lon": 113.91558355001757,
        "alt_km": 1103.4031244361122,
        "timestamp": "2025-12-20T03:42:47.788289+00:00",
        "meta_object_name": "COSMOS 2251 DEB",
        "meta_object_id": "1993-036PN",
        "meta_epoch": "2025-12-19T13:48:31.198176",
        "meta_mean_motion": 13.79597529,
        "meta_eccentricity": 0.0283515,
        "meta_inclination": 74.0787,
        "meta_ra_of_asc_node": 296.5699,
        "meta_arg_of_pericenter": 42.7474,
        "meta_mean_anomaly": 132.2594,
        "meta_ephemeris_type": 0,
        "meta_classification_type": "U",
        "meta_norad_cat_id": 34340,
        "meta_element_set_no": 999,
        "meta_rev_at_epoch": 84362,
        "meta_bstar": 0.001235,
        "meta_mean_motion_dot": 1.701e-05,
        "meta_mean_motion_ddot": 0,
        "tle_line1": "1 34340U 93036PN  25353.57536109  .00001701  00000+0  12350-2 0  9990",
        "tle_line2": "2 34340  74.0787 296.5699 0283515  42.7474 132.2594 13.79597529843623"
      },
      "geometry": {
        "type": "Point",
        "coordinates": [
          113.91558355001757,
          5.888511755967367
        ]
      }
    },
    {
      "type": "Feature",
      "properties": {
        "norad_id": 34343,
        "name": "COSMOS 2251 DEB",
        "group": "cosmos-2251-debris",
        "lat": 54.02596686767576,
        "lon": -128.07626967406603,
        "alt_km": 669.027471360987,
        "timestamp": "2025-12-20T03:42:47.788299+00:00",
        "meta_object_name": "COSMOS 2251 DEB",
        "meta_object_id": "1993-036PR",
        "meta_epoch": "2025-12-19T16:24:38.901312",
        "meta_mean_motion": 14.69539596,
        "meta_eccentricity": 0.0023984,
        "meta_inclination": 74.0206,
        "meta_ra_of_asc_node": 76.0885,
        "meta_arg_of_pericenter": 348.4913,
        "meta_mean_anomaly": 163.535,
        "meta_ephemeris_type": 0,
        "meta_classification_type": "U",
        "meta_norad_cat_id": 34343,
        "meta_element_set_no": 999,
        "meta_rev_at_epoch": 88832,
        "meta_bstar": 0.00082048,
        "meta_mean_motion_dot": 4.862e-05,
        "meta_mean_motion_ddot": 0,
        "tle_line1": "1 34343U 93036PR  25353.68378358  .00004862  00000+0  82048-3 0  9998",
        "tle_line2": "2 34343  74.0206  76.0885 0023984 348.4913 163.5350 14.69539596888329"
      },
      "geometry": {
        "type": "Point",
        "coordinates": [
          -128.07626967406603,
          54.02596686767576
        ]
      }
    },
    {
      "type": "Feature",
      "properties": {
        "norad_id": 34344,
        "name": "COSMOS 2251 DEB",
        "group": "cosmos-2251-debris",
        "lat": -62.60092026555055,
        "lon": -49.2250890003224,
        "alt_km": 748.3648035965534,
        "timestamp": "2025-12-20T03:42:47.788310+00:00",
        "meta_object_name": "COSMOS 2251 DEB",
        "meta_object_id": "1993-036PS",
        "meta_epoch": "2025-12-18T17:13:37.907904",
        "meta_mean_motion": 14.16454578,
        "meta_eccentricity": 0.01562401,
        "meta_inclination": 73.9796,
        "meta_ra_of_asc_node": 99.676,
        "meta_arg_of_pericenter": 282.6089,
        "meta_mean_anomaly": 201.4311,
        "meta_ephemeris_type": 0,
        "meta_classification_type": "U",
        "meta_norad_cat_id": 34344,
        "meta_element_set_no": 999,
        "meta_rev_at_epoch": 86181,
        "meta_bstar": 0.0015826322,
        "meta_mean_motion_dot": 3.521e-05,
        "meta_mean_motion_ddot": 0,
        "tle_line1": "1 34344U 93036PS  25352.71779986  .00003521  00000+0  15826-2 0  9994",
        "tle_line2": "2 34344  73.9796  99.6760 0156240 282.6089 201.4311 14.16454578861812"
      },
      "geometry": {
        "type": "Point",
        "coordinates": [
          -49.2250890003224,
          -62.60092026555055
        ]
      }
    },
    {
      "type": "Feature",
      "properties": {
        "norad_id": 34346,
        "name": "COSMOS 2251 DEB",
        "group": "cosmos-2251-debris",
        "lat": -73.16525237831377,
        "lon": -132.1693418963485,
        "alt_km": 1041.0791840358997,
        "timestamp": "2025-12-20T03:42:47.788320+00:00",
        "meta_object_name": "COSMOS 2251 DEB",
        "meta_object_id": "1993-036PU",
        "meta_epoch": "2025-12-18T21:33:18.959040",
        "meta_mean_motion": 13.99711117,
        "meta_eccentricity": 0.02061809,
        "meta_inclination": 73.9946,
        "meta_ra_of_asc_node": 301.5601,
        "meta_arg_of_pericenter": 119.0026,
        "meta_mean_anomaly": 305.9706,
        "meta_ephemeris_type": 0,
        "meta_classification_type": "U",
        "meta_norad_cat_id": 34346,
        "meta_element_set_no": 999,
        "meta_rev_at_epoch": 85496,
        "meta_bstar": 0.00077636968,
        "meta_mean_motion_dot": 1.342e-05,
        "meta_mean_motion_ddot": 0,
        "tle_line1": "1 34346U 93036PU  25352.89813610  .00001342  00000+0  77637-3 0  9996",
        "tle_line2": "2 34346  73.9946 301.5601 0206180 119.0026 305.9706 13.99711117854964"
      },
      "geometry": {
        "type": "Point",
        "coordinates": [
          -132.1693418963485,
          -73.16525237831377
        ]
      }
    },
    {
      "type": "Feature",
      "properties": {
        "norad_id": 34383,
        "name": "COSMOS 2251 DEB",
        "group": "cosmos-2251-debris",
        "lat": 23.299578541359317,
        "lon": 95.31057735180941,
        "alt_km": 537.3429477208283,
        "timestamp": "2025-12-20T03:42:47.788330+00:00",
        "meta_object_name": "COSMOS 2251 DEB",
        "meta_object_id": "1993-036PY",
        "meta_epoch": "2025-12-19T20:54:49.716000",
        "meta_mean_motion": 15.09588199,
        "meta_eccentricity": 0.0002976,
        "meta_inclination": 74.0215,
        "meta_ra_of_asc_node": 282.9836,
        "meta_arg_of_pericenter": 46.5992,
        "meta_mean_anomaly": 9.9621,
        "meta_ephemeris_type": 0,
        "meta_classification_type": "U",
        "meta_norad_cat_id": 34383,
        "meta_element_set_no": 999,
        "meta_rev_at_epoch": 89221,
        "meta_bstar": 0.0018768,
        "meta_mean_motion_dot": 0.00030251,
        "meta_mean_motion_ddot": 0,
        "tle_line1": "1 34383U 93036PY  25353.87140875  .00030251  00000+0  18768-2 0  9992",
        "tle_line2": "2 34383  74.0215 282.9836 0002976  46.5992   9.9621 15.09588199892213"
      },
      "geometry": {
        "type": "Point",
        "coordinates": [
          95.31057735180941,
          23.299578541359317
        ]
      }
    },
    {
      "type": "Feature",
      "properties": {
        "norad_id": 34387,
        "name": "COSMOS 2251 DEB",
        "group": "cosmos-2251-debris",
        "lat": 33.47453013513597,
        "lon": 7.2047656108218305,
        "alt_km": 767.0801227168631,
        "timestamp": "2025-12-20T03:42:47.788412+00:00",
        "meta_object_name": "COSMOS 2251 DEB",
        "meta_object_id": "1993-036QC",
        "meta_epoch": "2025-12-19T20:28:16.872384",
        "meta_mean_motion": 14.43834831,
        "meta_eccentricity": 0.0038903,
        "meta_inclination": 74.0389,
        "meta_ra_of_asc_node": 198.6743,
        "meta_arg_of_pericenter": 294.2913,
        "meta_mean_anomaly": 83.0565,
        "meta_ephemeris_type": 0,
        "meta_classification_type": "U",
        "meta_norad_cat_id": 34387,
        "meta_element_set_no": 999,
        "meta_rev_at_epoch": 88284,
        "meta_bstar": 0.00020956,
        "meta_mean_motion_dot": 6.93e-06,
        "meta_mean_motion_ddot": 0,
        "tle_line1": "1 34387U 93036QC  25353.85297306  .00000693  00000+0  20956-3 0  9996",
        "tle_line2": "2 34387  74.0389 198.6743 0038903 294.2913  83.0565 14.43834831882845"
      },
      "geometry": {
        "type": "Point",
        "coordinates": [
          7.2047656108218305,
          33.47453013513597
        ]
      }
    },
    {
      "type": "Feature",
      "properties": {
        "norad_id": 34388,
        "name": "COSMOS 2251 DEB",
        "group": "cosmos-2251-debris",
        "lat": -73.01397139449931,
        "lon": 139.64789509177712,
        "alt_km": 725.2746245406861,
        "timestamp": "2025-12-20T03:42:47.788425+00:00",
        "meta_object_name": "COSMOS 2251 DEB",
        "meta_object_id": "1993-036QD",
        "meta_epoch": "2025-12-19T14:59:23.455392",
        "meta_mean_motion": 14.49396358,
        "meta_eccentricity": 0.0013828,
        "meta_inclination": 74.0381,
        "meta_ra_of_asc_node": 210.192,
        "meta_arg_of_pericenter": 258.0327,
        "meta_mean_anomaly": 132.719,
        "meta_ephemeris_type": 0,
        "meta_classification_type": "U",
        "meta_norad_cat_id": 34388,
        "meta_element_set_no": 999,
        "meta_rev_at_epoch": 88255,
        "meta_bstar": 0.00043519,
        "meta_mean_motion_dot": 1.639e-05,
        "meta_mean_motion_ddot": 0,
        "tle_line1": "1 34388U 93036QD  25353.62457703  .00001639  00000+0  43519-3 0  9992",
        "tle_line2": "2 34388  74.0381 210.1920 0013828 258.0327 132.7190 14.49396358882558"
      },
      "geometry": {
        "type": "Point",
        "coordinates": [
          139.64789509177712,
          -73.01397139449931
        ]
      }
    }
  ]
}